{
  "type": "FeatureCollection",
  "features": [
    {
      "type": "Feature",
      "properties": {
        "norad_id": 19071,
        "name": "OSCAR 32",
        "group": "nnss",
        "lat": -46.15653186514806,
        "lon": 17.09413491834084,
        "alt_km": 1300.4536544674065,
        "timestamp": "2025-12-20T07:33:51.081632+00:00",
        "meta_object_name": "OSCAR 32",
        "meta_object_id": "1988-033B",
        "meta_epoch": "2025-12-19T23:05:10.906656",
        "meta_mean_motion": 13.27955122,
        "meta_eccentricity": 0.01889056,
        "meta_inclination": 90.321,
        "meta_ra_of_asc_node": 16.7487,
        "meta_arg_of_pericenter": 146.7765,
        "meta_mean_anomaly": 278.9555,
        "meta_ephemeris_type": 0,
        "meta_classification_type": "U",
        "meta_norad_cat_id": 19071,
        "meta_element_set_no": 999,
        "meta_rev_at_epoch": 82361,
        "meta_bstar": 0.00013657065,
        "meta_mean_motion_dot": 7.8e-07,
        "meta_mean_motion_ddot": 0,
        "tle_line1": "1 19071U 88033B   25353.96193179  .00000078  00000+0  13657-3 0  9992",
        "tle_line2": "2 19071  90.3210  16.7487 0188905 146.7765 278.9555 13.27955122823613"
      },
      "geometry": {
        "type": "Point",
        "coordinates": [
          17.09413491834084,
          -46.15653186514806
        ]
      }
    },
    {
      "type": "Feature",
      "properties": {
        "norad_id": 19223,
        "name": "NOVA 2",
        "group": "nnss",
        "lat": 14.041252354896711,
        "lon": 78.26633996517498,
        "alt_km": 1152.8839316076383,
        "timestamp": "2025-12-20T07:33:51.081642+00:00",
        "meta_object_name": "NOVA 2",
        "meta_object_id": "1988-052A",
        "meta_epoch": "2025-12-19T06:21:05.310720",
        "meta_mean_motion": 13.22936436,
        "meta_eccentricity": 0.0030033,
        "meta_inclination": 89.987,
        "meta_ra_of_asc_node": 78.2644,
        "meta_arg_of_pericenter": 358.9404,
        "meta_mean_anomaly": 54.7754,
        "meta_ephemeris_type": 0,
        "meta_classification_type": "U",
        "meta_norad_cat_id": 19223,
        "meta_element_set_no": 999,
        "meta_rev_at_epoch": 81034,
        "meta_bstar": 0.00011474,
        "meta_mean_motion_dot": 5.7e-07,
        "meta_mean_motion_ddot": 0,
        "tle_line1": "1 19223U 88052A   25353.26464480  .00000057  00000+0  11474-3 0  9993",
        "tle_line2": "2 19223  89.9870  78.2644 0030033 358.9404  54.7754 13.22936436810340"
      },
      "geometry": {
        "type": "Point",
        "coordinates": [
          78.26633996517498,
          14.041252354896711
        ]
      }
    },
    {
      "type": "Feature",
      "properties": {
        "norad_id": 19419,
        "name": "OSCAR 25",
        "group": "nnss",
        "lat": -87.16316812434538,
        "lon": -160.4175843676797,
        "alt_km": 1055.0214752326974,
        "timestamp": "2025-12-20T07:33:51.081668+00:00",
        "meta_object_name": "OSCAR 25",
        "meta_object_id": "1988-074A",
        "meta_epoch": "2025-12-19T20:22:23.213856",
        "meta_mean_motion": 13.42624628,
        "meta_eccentricity": 0.0094825,
        "meta_inclination": 90.034,
        "meta_ra_of_asc_node": 20.2674,
        "meta_arg_of_pericenter": 225.2515,
        "meta_mean_anomaly": 308.6842,
        "meta_ephemeris_type": 0,
        "meta_classification_type": "U",
        "meta_norad_cat_id": 19419,
        "meta_element_set_no": 999,
        "meta_rev_at_epoch": 82735,
        "meta_bstar": 0.0001467001,
        "meta_mean_motion_dot": 9.4e-07,
        "meta_mean_motion_ddot": 0,
        "tle_line1": "1 19419U 88074A   25353.84887979  .00000094  00000+0  14670-3 0  9992",
        "tle_line2": "2 19419  90.0340  20.2674 0094825 225.2515 308.6842 13.42624628827357"
      },
      "geometry": {
        "type": "Point",
        "coordinates": [
          -160.4175843676797,
          -87.16316812434538
        ]
      }
    },
    {
      "type": "Feature",
      "properties": {
        "norad_id": 19420,
        "name": "OSCAR 31",
        "group": "nnss",
        "lat": 31.77649860527727,
        "lon": -159.3577136708529,
        "alt_km": 1073.401619106221,
        "timestamp": "2025-12-20T07:33:51.081680+00:00",
        "meta_object_name": "OSCAR 31",
        "meta_object_id": "1988-074B",
        "meta_epoch": "2025-12-19T04:19:51.591936",
        "meta_mean_motion": 13.42585711,
        "meta_eccentricity": 0.0093141,
        "meta_inclination": 90.0356,
        "meta_ra_of_asc_node": 20.6162,
        "meta_arg_of_pericenter": 221.3224,
        "meta_mean_anomaly": 206.6129,
        "meta_ephemeris_type": 0,
        "meta_classification_type": "U",
        "meta_norad_cat_id": 19420,
        "meta_element_set_no": 999,
        "meta_rev_at_epoch": 82737,
        "meta_bstar": 0.00015294,
        "meta_mean_motion_dot": 9.7e-07,
        "meta_mean_motion_ddot": 0,
        "tle_line1": "1 19420U 88074B   25353.18045824  .00000097  00000+0  15294-3 0  9992",
        "tle_line2": "2 19420  90.0356  20.6162 0093141 221.3224 206.6129 13.42585711827372"
      },
      "geometry": {
        "type": "Point",
        "coordinates": [
          -159.3577136708529,
          31.77649860527727
        ]
      }
    }
  ]
}